2022-023A               
1 51946U 22023A   22094.54893610  .00030952  00000+0  13506-2 0  9992
2 51946  63.4520  91.6399 0018915 314.0563 145.1760 15.21868011  4629
2022-023B               
1 51947U 22023B   22093.95178956  .00013582  00000+0  59850-3 0  9999
2 51947  63.4482  93.6460 0019623 313.9616 130.7779 15.21925496  4533
2022-023C               
1 51948U 22023C   22093.82202345  .00003107  00000+0  14554-3 0  9990
2 51948  63.4443  94.1225 0018482 304.7289 116.4249 15.21800258  4511
2022-023D               
1 51949U 22023D   22093.82496601  .00002681  00000+0  12678-3 0  9992
2 51949  63.4507  94.1523 0017385 311.1035 110.4324 15.21875565  4517
2022-023E               
1 51950U 22023E   22093.96493617  .00008221  00000+0  36751-3 0  9997
2 51950  63.4447  93.6817 0016675 307.2156 145.7772 15.21882364  4538
2022-023F               
1 51951U 22023F   22094.56040601  .00007795  00000+0  34676-3 0  9995
2 51951  63.4429  91.6595 0017318 304.3018 156.8126 15.22095148  4623
2022-023G               
1 51952U 22023G   22094.48230647  .00009720  00000+0  39133-3 0  9991
2 51952  63.4383  91.7531 0018076 307.9915 196.7391 15.25261024  4618
2022-023H               
1 51953U 22023H   22094.47489733  .00003493  00000+0  25097-3 0  9998
2 51953  63.6385  96.6462 0114789 247.4276 111.4673 15.01007335  4542
NOOR-2                  
1 51954U 22024A   22094.11239583  .00011934  00000+0  54513-3 0  9991
2 51954  58.2898  36.7803 0013548 292.2822 255.5533 15.20951574  4080
QASED R/B               
1 51955U 22024B   22093.80702613  .00007032  00000+0  32355-3 0  9990
2 51955  58.2951  37.9362 0011444 307.9930  52.0096 15.21330586  4035
STARLINK-3700           
1 51956U 22025A   22093.91667824  .00049093  00000+0  35323-3 0  9999
2 51956  53.2180  14.3087 0001172 121.4924  37.7456 15.73129252  3691
STARLINK-3694           
1 51957U 22025B   22093.91667824  .00038992  00000+0  28177-3 0  9995
2 51957  53.2175  14.3009 0001453 125.6132  36.8491 15.73131091  5278
STARLINK-3692           
1 51958U 22025C   22093.91667824  .00049542  00000+0  35634-3 0  9995
2 51958  53.2179  14.3075 0001536 123.5202  36.3200 15.73133148  3695
STARLINK-3704           
1 51959U 22025D   22094.16667824  .00044969  00000+0  32350-3 0  9994
2 51959  53.2172  13.0670 0000975 130.7133   7.7240 15.73171948  5299
STARLINK-3691           
1 51960U 22025E   22093.91667824  .00052547  00000+0  37766-3 0  9995
2 51960  53.2182  14.3008 0001376 128.9600  34.1621 15.73126529  5253
STARLINK-3689           
1 51961U 22025F   22094.16667824  .00017533  00000+0  12910-3 0  9994
2 51961  53.2175  13.0697 0001242 122.3079  14.8051 15.73196510  5312
STARLINK-3697           
1 51962U 22025G   22094.16667824  .00008009  00000+0  61401-4 0  9993
2 51962  53.2170  13.0633 0001399 127.8257  13.1192 15.73210171  5317
STARLINK-3675           
1 51963U 22025H   22094.16667824  .00019738  00000+0  14479-3 0  9997
2 51963  53.2176  13.0685 0001311 121.8545  15.9242 15.73188276  5292
STARLINK-3690           
1 51964U 22025J   22094.16667824  .00013483  00000+0  10026-3 0  9993
2 51964  53.2179  13.0590 0001051 110.5938  32.2713 15.73216783  5293
STARLINK-3696           
1 51965U 22025K   22093.91667824  .00052584  00000+0  37751-3 0  9995
2 51965  53.2178  14.2991 0001378 136.8263  26.8736 15.73151904  5258
STARLINK-3699           
1 51966U 22025L   22093.91667824  .00051674  00000+0  37119-3 0  9993
2 51966  53.2183  14.2920 0001145 127.0049  40.5243 15.73145884  3695
STARLINK-3695           
1 51967U 22025M   22093.91667824  .00055565  00000+0  39846-3 0  9996
2 51967  53.2181  14.2968 0001415 138.1618  26.8072 15.73155587  3699
STARLINK-3681           
1 51968U 22025N   22094.58334491  .00123576  00000+0  87333-3 0  9994
2 51968  53.2181  10.9902 0001377 119.7595 226.8562 15.73164670  5373
STARLINK-3680           
1 51969U 22025P   22093.91667824  .00139512  00000+0  98655-3 0  9996
2 51969  53.2181  14.2956 0001172 115.6303  49.9906 15.73092425  3692
STARLINK-3677           
1 51970U 22025Q   22094.16667824  .00045240  00000+0  32581-3 0  9996
2 51970  53.2184  13.0521 0000879  99.2270  47.5525 15.73143309  5292
STARLINK-3669           
1 51971U 22025R   22093.91667824  .00050033  00000+0  35944-3 0  9991
2 51971  53.2181  14.2933 0001417 124.1444  42.7699 15.73157153  5279
STARLINK-3671           
1 51972U 22025S   22093.91667824 -.00010674  00000+0 -71946-4 0  9994
2 51972  53.2189  14.2848 0001419 113.2228  58.1640 15.73130906  5267
STARLINK-3679           
1 51973U 22025T   22093.91667824  .00050855  00000+0  36533-3 0  9990
2 51973  53.2184  14.2879 0001034 111.5694  57.8660 15.73151435  5255
STARLINK-3672           
1 51974U 22025U   22094.16667824  .00018546  00000+0  13623-3 0  9995
2 51974  53.2180  12.3403 0001341 136.9756 358.0320 15.73206476  5306
STARLINK-3674           
1 51975U 22025V   22094.16667824  .00115035  00000+0  81553-3 0  9994
2 51975  53.2184  13.0461 0000805 112.9804  36.3192 15.73123738  5318
STARLINK-3663           
1 51976U 22025W   22094.16667824 -.00715006  00000+0 -61543-2 0  9997
2 51976  53.2175  13.0527 0001150  99.8548  41.5163 15.70727523  5308
STARLINK-3660           
1 51977U 22025X   22094.16667824 -.00019375  00000+0 -13382-3 0  9993
2 51977  53.2179  12.3407 0001170 111.0216  23.3371 15.73222437  5309
STARLINK-3666           
1 51978U 22025Y   22094.16667824 -.00714987  00000+0 -60572-2 0  9997
2 51978  53.2175  13.0465 0001245 115.7650  30.8230 15.71102501  5296
STARLINK-3656           
1 51979U 22025Z   22093.91667824 -.00717670  00000+0 -61116-2 0  9997
2 51979  53.2176  14.2858 0001178 100.4563  64.3723 15.70987891  3699
STARLINK-3649           
1 51980U 22025AA  22094.16667824 -.00715143  00000+0 -59934-2 0  9995
2 51980  53.2176  13.0436 0001221 112.6379  36.4172 15.71358190  5290
STARLINK-3635           
1 51981U 22025AB  22093.91667824 -.00717699  00000+0 -60483-2 0  9997
2 51981  53.2176  14.2810 0001154  93.8507  74.7528 15.71235086  3698
STARLINK-3650           
1 51982U 22025AC  22094.16667824 -.00715205  00000+0 -59616-2 0  9993
2 51982  53.2176  13.0421 0001182 105.5378  44.6932 15.71486033  5307
STARLINK-3655           
1 51983U 22025AD  22093.91667824 -.00717645  00000+0 -60162-2 0  9994
2 51983  53.2176  14.2785 0001154  86.9944  83.4427 15.71358648  3694
STARLINK-3664           
1 51984U 22025AE  22094.16667824 -.00714618  00000+0 -64776-2 0  9995
2 51984  53.2175  13.0349 0001149 100.9823  38.4171 15.69492856  5307
STARLINK-3651           
1 51985U 22025AF  22094.16667824 -.00715019  00000+0 -60248-2 0  9992
2 51985  53.2175  13.0449 0001245 115.0559  32.7848 15.71230310  5293
STARLINK-3645           
1 51986U 22025AG  22094.16667824 -.00714614  00000+0 -64085-2 0  9996
2 51986  53.2175  13.0339 0001289 119.2794  23.5544 15.69748461  5296
STARLINK-3644           
1 51987U 22025AH  22093.91667824 -.00717295  00000+0 -64690-2 0  9999
2 51987  53.2175  14.2661 0001259 113.2548  49.2610 15.69621257  3690
STARLINK-3640           
1 51988U 22025AJ  22094.16667824 -.00714563  00000+0 -63738-2 0  9995
2 51988  53.2175  13.0333 0001312 120.3961  24.0973 15.69876241  5311
STARLINK-3642           
1 51989U 22025AK  22093.91667824 -.00717159  00000+0 -64334-2 0  9995
2 51989  53.2175  14.2659 0001180  84.4350  79.7789 15.69748986  3696
STARLINK-3657           
1 51990U 22025AL  22094.50001157 -.00028083  00000+0 -19605-3 0  9997
2 51990  53.2176  11.3768 0001126 117.7102 130.0851 15.73235403  5360
STARLINK-3652           
1 51991U 22025AM  22094.16667824 -.00714560  00000+0 -64425-2 0  9990
2 51991  53.2175  13.0343 0001191 107.4023  33.7335 15.69620637  5298
STARLINK-3643           
1 51992U 22025AN  22093.91667824  .00050685  00000+0  36448-3 0  9997
2 51992  53.2176  14.2594 0001158 128.4196  55.7268 15.73128734  3695
STARLINK-3648           
1 51993U 22025AP  22094.50001157 -.00722033  00000+0 -65491-2 0  9999
2 51993  53.2175  11.3888 0001188  96.6824 134.2106 15.69498536  5372
STARLINK-3647           
1 51994U 22025AQ  22093.91667824  .00044454  00000+0  32058-3 0  9999
2 51994  53.2178  14.2588 0001120 120.0338  64.7268 15.73119410  3698
STARLINK-3636           
1 51995U 22025AR  22094.50001157  .00026288  00000+0  19088-3 0  9990
2 51995  53.2184  11.3755 0001193 118.5388 129.8825 15.73231625  5357
STARLINK-3538           
1 51996U 22025AS  22094.16667824  .00111360  00000+0  79045-3 0  9997
2 51996  53.2179  13.0215 0001206  99.3538  62.7023 15.73109214  5308
STARLINK-3589           
1 51997U 22025AT  22093.91667824  .00044028  00000+0  31764-3 0  9992
2 51997  53.2175  14.2603 0001304 118.7054  64.8013 15.73113947  3697
STARLINK-3618           
1 51998U 22025AU  22094.16667824  .00007547  00000+0  58176-4 0  9993
2 51998  53.2180  13.0194 0001089 106.7459  56.5997 15.73184577  5296
STARLINK-3667           
1 51999U 22025AV  22094.50001157  .00051931  00000+0  37217-3 0  9991
2 51999  53.2175  11.3687 0001161 112.7430 138.8172 15.73198514  5358
STARLINK-3653           
1 52000U 22025AW  22094.50001157 -.00010433  00000+0 -69933-4 0  9990
2 52000  53.2183  11.3658 0001394 122.2789 131.2537 15.73224854  5371
STARLINK-3659           
1 52001U 22025AX  22094.16667824  .00027010  00000+0  19629-3 0  9995
2 52001  53.2174  13.0171 0001162 111.9127  52.0206 15.73195000  5312
STARLINK-3668           
1 52002U 22025AY  22094.50001157 -.00031479  00000+0 -22043-3 0  9995
2 52002  53.2178  11.3645 0001089 125.2207 128.9548 15.73230412  5352
STARLINK-3654           
1 52003U 22025AZ  22094.16667824  .00016169  00000+0  11945-3 0  9993
2 52003  53.2191  13.0139 0001047 102.4565  63.4436 15.73189372  5293
FALCON 9 DEB            
1 52004U 22025BA  22094.47676720  .00502666  12099-3  95967-3 0  9996
2 52004  53.2274   8.8028 0005676 288.9687  71.0729 16.00038684  4291
